NORAD_CAT_ID,OBJECT_NAME,OBJECT_TYPE,EPOCH,MEAN_MOTION,ECCENTRICITY,INCLINATION,RA_OF_ASC_NODE,ARG_OF_PERICENTER,MEAN_ANOMALY,BSTAR,MEAN_MOTION_DOT,MEAN_MOTION_DDOT,TLE_LINE0,TLE_LINE1,TLE_LINE2,SEMIMAJOR_AXIS,PERIOD,APOGEE,PERIGEE,DECAYED
53019.0,STARLINK-4282,PAYLOAD,2022-07-12 16:00:00,15.882979,0.0032929,53.2174,354.5803,54.6955,175.9383,-0.0040436,-0.01192455,0.00040665,0 STARLINK-4282,1 53019U 22076AK  22193.66667824 -.01192455  40665-3 -40436-2 0  9999,2 53019  53.2174 354.5803 0032929  54.6955 175.9383 15.88297900  1308,6685.191999999999,90.663,329.07,285.043,0.0
53019.0,STARLINK-4282,PAYLOAD,2022-07-13 04:00:00,15.87159174,0.0028106,53.2175,352.0515,56.1894,153.9927,-0.0043386,-0.01192759,0.0004026,0 STARLINK-4282,1 53019U 22076AK  22194.16667824 -.01192759  40260-3 -43386-2 0  9990,2 53019  53.2175 352.0515 0028106  56.1894 153.9927 15.87159174  1379,6688.389,90.728,329.052,291.456,0.0
53019.0,STARLINK-4282,PAYLOAD,2022-07-13 14:00:01,15.86182072,0.0024473,53.2177,349.9485,55.0672,16.5123,-0.0043661,-0.01134931,0.00036456,0 STARLINK-4282,1 53019U 22076AK  22194.58334491 -.01134931  36456-3 -43661-2 0  9993,2 53019  53.2177 349.9485 0024473  55.0672  16.5123 15.86182072  1304,6691.135,90.784,329.376,296.625,0.0
53019.0,STARLINK-4282,PAYLOAD,2022-07-13 22:00:00,15.85435866,0.0020955,53.2173,348.269,56.4285,119.2292,-0.0046685,-0.01043144,0.0,0 STARLINK-4282,1 53019U 22076AK  22194.91667824 -.01043144  00000-0 -46685-2 0  9996,2 53019  53.2173 348.2690 0020955  56.4285 119.2292 15.85435866  1495,6693.235,90.827,329.125,301.074,0.0
53019.0,STARLINK-4282,PAYLOAD,2022-07-14 14:00:01,15.83914501,0.0015220999999999,53.2175,344.9124,52.8524,328.2363,-0.0050482,-0.01036682,0.0,0 STARLINK-4282,1 53019U 22076AK  22195.58334491 -.01036682  00000-0 -50482-2 0  9990,2 53019  53.2175 344.9124 0015221  52.8524 328.2363 15.83914501  1608,6697.52,90.914,329.579,309.191,0.0
53019.0,STARLINK-4282,PAYLOAD,2022-07-14 22:00:00,15.83147812,0.0012575,53.2172,343.2386,53.0766,69.3594,-0.0051763999999999,-0.01022131,0.0,0 STARLINK-4282,1 53019U 22076AK  22195.91667824 -.01022131  00000-0 -51764-2 0  9994,2 53019  53.2172 343.2386 0012575  53.0766  69.3594 15.83147812  1306,6699.682,90.958,329.972,313.122,0.0
53019.0,STARLINK-4282,PAYLOAD,2022-07-15 14:00:01,15.8165121,0.000676,53.2176,339.8933,41.0994,281.2831,-0.0058133999999999,-0.01057574,0.0,0 STARLINK-4282,1 53019U 22076AK  22196.58334491 -.01057574  00000-0 -58134-2 0  9996,2 53019  53.2176 339.8933 0006760  41.0994 281.2831 15.81651210  1767,6703.908,91.044,330.305,321.241,0.0
53019.0,STARLINK-4282,PAYLOAD,2022-07-15 22:00:00,15.80874238,0.0004505,53.2171,338.2247,28.2925,32.7032,-0.0058403,-0.01026413,0.0,0 STARLINK-4282,1 53019U 22076AK  22196.91667824 -.01026413  00000-0 -58403-2 0  9999,2 53019  53.2171 338.2247 0004505  28.2925  32.7032 15.80874238  1307,6706.104,91.089,330.99,324.948,0.0
53019.0,STARLINK-4282,PAYLOAD,2022-07-16 14:00:01,15.79364063,0.0003329,53.2174,334.8912,6.3466,249.1237,-0.0063641,-0.01058207,0.0,0 STARLINK-4282,1 53019U 22076AK  22197.58334491 -.01058207  00000-0 -63641-2 0  9990,2 53019  53.2174 334.8912 0003329   6.3466 249.1237 15.79364063  1928,6710.378000000002,91.176,334.477,330.009,0.0
53019.0,STARLINK-4282,PAYLOAD,2022-07-16 22:00:00,15.78606289,0.0003006,53.2172,333.228,6.4103,344.9285,-0.0065973,-0.01059333,0.0,0 STARLINK-4282,1 53019U 22076AK  22197.91667824 -.01059333  00000-0 -65973-2 0  9997,2 53019  53.2172 333.2280 0003006   6.4103 344.9285 15.78606289  1305,6712.526,91.22,336.408,332.3730000000001,0.0
53019.0,STARLINK-4282,PAYLOAD,2022-07-17 06:00:00,15.77843574,0.0003003,53.2174,331.564,8.0453,78.2535,-0.0068031,-0.01055633,0.0,0 STARLINK-4282,1 53019U 22076AK  22198.25001157 -.01055633  00000-0 -68031-2 0  9993,2 53019  53.2174 331.5640 0003003   8.0453  78.2535 15.77843574  2025,6714.689,91.264,338.57,334.537,0.0
53019.0,STARLINK-4282,PAYLOAD,2022-07-17 14:00:01,15.77083316,0.0003439,53.2176,329.9056,7.3541,172.988,-0.0070224999999999,-0.01053497,0.0,0 STARLINK-4282,1 53019U 22076AK  22198.58334491 -.01053497  00000-0 -70225-2 0  9993,2 53019  53.2176 329.9056 0003439   7.3541 172.9880 15.77083316  1307,6716.846,91.308,341.021,336.401,0.0
53019.0,STARLINK-4282,PAYLOAD,2022-07-17 22:00:00,15.76328674,0.0003322,53.2171,328.2478,5.5109,267.9608,-0.0073173999999999,-0.010605,0.0,0 STARLINK-4282,1 53019U 22076AK  22198.91667824 -.01060500  00000-0 -73174-2 0  9998,2 53019  53.2171 328.2478 0003322   5.5109 267.9608 15.76328674  1304,6718.99,91.352,343.087,338.6230000000001,0.0
53019.0,STARLINK-4282,PAYLOAD,2022-07-18 06:00:00,15.75564587,0.0001421,53.2172,326.5896,21.2864,344.4076,-0.0075232,-0.01053744,0.0,0 STARLINK-4282,1 53019U 22076AK  22199.25001157 -.01053744  00000-0 -75232-2 0  9996,2 53019  53.2172 326.5896 0001421  21.2864 344.4076 15.75564587  2182,6721.1619999999975,91.396,343.982,342.07199999999995,0.0
53019.0,STARLINK-4282,PAYLOAD,2022-07-18 14:00:01,15.74807047,0.0001648,53.2173,324.9371,35.9964,61.0018,-0.0077929,-0.01055605,0.0,0 STARLINK-4282,1 53019U 22076AK  22199.58334491 -.01055605  00000-0 -77929-2 0  9995,2 53019  53.2173 324.9371 0001648  35.9964  61.0018 15.74807047  1308,6723.316999999999,91.44,346.29,344.074,0.0
53019.0,STARLINK-4282,PAYLOAD,2022-07-18 22:00:00,15.73945379,0.0001744,53.2172,323.2846,39.6699,147.7402,-0.0058214,-0.00771152,0.0,0 STARLINK-4282,1 53019U 22076AK  22199.91667824 -.00771152  00000-0 -58214-2 0  9998,2 53019  53.2172 323.2846 0001744  39.6699 147.7402 15.73945379  1308,6725.771,91.49,348.809,346.463,0.0
53019.0,STARLINK-4282,PAYLOAD,2022-07-19 06:00:00,15.73272626,0.0001338,53.2174,321.6319,75.1786,201.7303,-0.00078989,-0.00110375,0.0,0 STARLINK-4282,1 53019U 22076AK  22200.25001157 -.00110375  00000-0 -78989-3 0  9995,2 53019  53.2174 321.6319 0001338  75.1786 201.7303 15.73272626  2342,6727.688,91.529,350.45300000000015,348.653,0.0
53019.0,STARLINK-4282,PAYLOAD,2022-07-19 14:00:01,15.73204855,0.0001673,53.2175,319.9842,38.0247,327.8495,-5.7251e-06,-1.424e-05,0.0,0 STARLINK-4282,1 53019U 22076AK  22200.58334491 -.00001424  00000-0 -57251-5 0  9996,2 53019  53.2175 319.9842 0001673  38.0247 327.8495 15.73204855  2392,6727.880999999999,91.533,350.872,348.621,0.0
53019.0,STARLINK-4282,PAYLOAD,2022-07-19 22:00:00,15.73205598,0.0001375,53.2172,318.3345,49.3737,45.4347,-1.4433e-05,-2.645e-05,0.0,0 STARLINK-4282,1 53019U 22076AK  22200.91667824 -.00002645  00000-0 -14433-4 0  9992,2 53019  53.2172 318.3345 0001375  49.3737  45.4347 15.73205598  1302,6727.879,91.533,350.6690000000001,348.819,0.0
53019.0,STARLINK-4282,PAYLOAD,2022-07-20 14:00:01,15.732176999999998,0.0001827,53.219,315.0411,46.6661,226.239,-0.00018748,-0.0002686999999999,0.0,0 STARLINK-4282,1 53019U 22076AK  22201.58334491 -.00026870  00000-0 -18748-3 0  9995,2 53019  53.2190 315.0411 0001827  46.6661 226.2390 15.73217700  1303,6727.845,91.532,350.939,348.481,0.0
53019.0,STARLINK-4282,PAYLOAD,2022-07-20 22:00:01,15.73197398,0.0001646,53.2191,313.3913,38.6755,323.2004,-0.00095495,-0.00132542,0.0,0 STARLINK-4282,1 53019U 22076AK  22201.91668981 -.00132542  00000-0 -95495-3 0  9994,2 53019  53.2191 313.3913 0001646  38.6755 323.2004 15.73197398  2600,6727.903,91.533,350.875,348.66,0.0
53019.0,STARLINK-4282,PAYLOAD,2022-07-21 08:00:01,15.73105233,0.0001468,53.2194,311.3285,40.1043,162.7556,0.00035814,0.00049737,0.0,0 STARLINK-4282,1 53019U 22076AK  22202.33334491  .00049737  00000-0  35814-3 0  9997,2 53019  53.2194 311.3285 0001468  40.1043 162.7556 15.73105233  2664,6728.165,91.539,351.01800000000014,349.043,0.0
53019.0,STARLINK-4282,PAYLOAD,2022-07-21 14:00:01,15.73125796,0.0001719,53.2189,310.0931,34.2416,145.3076,0.00021098,0.00028998,0.0,0 STARLINK-4282,1 53019U 22076AK  22202.58335648  .00028998  00000-0  21098-3 0  9994,2 53019  53.2189 310.0931 0001719  34.2416 145.3076 15.73125796  1309,6728.107,91.537,351.12800000000016,348.815,0.0
53019.0,STARLINK-4282,PAYLOAD,2022-07-21 22:00:00,15.73097955,0.000179,53.2175,308.441,30.8069,237.5518,0.0017198,0.00246891,0.0,0 STARLINK-4282,1 53019U 22076AK  22202.91667824  .00246891  00000-0  17198-2 0  9994,2 53019  53.2175 308.4410 0001790  30.8069 237.5518 15.73097955  1302,6728.186,91.539,351.255,348.847,0.0
53019.0,STARLINK-4282,PAYLOAD,2022-07-22 06:00:00,15.73177344,0.0001545,53.2187,306.7925,38.4961,318.7479,0.00057256,0.0008043,0.0,0 STARLINK-4282,1 53019U 22076AK  22203.25001157  .00080430  00000-0  57256-3 0  9998,2 53019  53.2187 306.7925 0001545  38.4961 318.7479 15.73177344  1309,6727.96,91.534,350.86400000000015,348.785,0.0
53019.0,STARLINK-4282,PAYLOAD,2022-07-22 12:00:00,15.73229805,0.0001714,53.2188,305.557,34.4129,299.5246,0.00010295,0.0001386999999999,0.0,0 STARLINK-4282,1 53019U 22076AK  22203.50001157  .00013870  00000-0  10295-3 0  9992,2 53019  53.2188 305.5570 0001714  34.4129 299.5246 15.73229805  2852,6727.81,91.531,350.82800000000015,348.522,0.0
53019.0,STARLINK-4282,PAYLOAD,2022-07-22 22:00:00,15.73318605,0.0001854,53.219,303.495,32.9545,142.2301,-0.0007026,-0.00098584,0.0,0 STARLINK-4282,1 53019U 22076AK  22203.91667824 -.00098584  00000-0 -70260-3 0  9991,2 53019  53.2190 303.4950 0001854  32.9545 142.2301 15.73318605  2914,6727.557,91.526,350.6690000000001,348.175,0.0
53019.0,STARLINK-4282,PAYLOAD,2022-07-23 14:00:01,15.73183398,0.000188,53.219,300.1965,27.9146,325.3233,-0.00017383,-0.00024928,0.0,0 STARLINK-4282,1 53019U 22076AK  22204.58335648 -.00024928  00000-0 -17383-3 0  9999,2 53019  53.2190 300.1965 0001880  27.9146 325.3233 15.73183398  1303,6727.943,91.534,351.07199999999995,348.543,0.0
53019.0,STARLINK-4282,PAYLOAD,2022-07-23 22:00:00,15.73211649,0.0001807,53.2184,298.5463,24.2372,57.8529,0.00012473,0.00016929,0.0,0 STARLINK-4282,1 53019U 22076AK  22204.91667824  .00016929  00000-0  12473-3 0  9995,2 53019  53.2184 298.5463 0001807  24.2372  57.8529 15.73211649  3071,6727.861999999999,91.533,350.9430000000001,348.511,0.0
